OBJECT_NAME,OBJECT_ID,EPOCH,MEAN_MOTION,ECCENTRICITY,INCLINATION,RA_OF_ASC_NODE,ARG_OF_PERICENTER,MEAN_ANOMALY,EPHEMERIS_TYPE,CLASSIFICATION_TYPE,NORAD_CAT_ID,ELEMENT_SET_NO,REV_AT_EPOCH,BSTAR,MEAN_MOTION_DOT,MEAN_MOTION_DDOT
ONEWEB-0550,2023-043G,2026-06-06T11:31:03.617472,13.21825746,.00020054,87.9259,246.1083,93.6269,266.5094,0,U,56052,999,15681,.21698826E-3,.103E-5,0
ONEWEB-0551,2023-043H,2026-06-06T13:59:54.177216,13.15549536,.00016973,87.9000,261.3391,110.0353,250.0960,0,U,56053,999,15500,.47238856E-3,.191E-5,0
ONEWEB-0552,2023-043J,2026-06-06T11:23:46.619232,13.21828560,.00017314,87.9254,246.1148,97.3145,262.8186,0,U,56054,999,15681,.52370734E-4,.35E-6,0
ONEWEB-0553,2023-043K,2026-06-06T11:11:33.397728,13.16594460,.00024516,87.9100,230.9031,99.3798,260.7610,0,U,56055,999,15756,-.28580056E-4,.2E-7,0
ONEWEB-0554,2023-043L,2026-06-06T10:53:19.493376,13.16594228,.00022288,87.9105,230.9146,91.9026,268.2360,0,U,56056,999,15754,-.24010099E-4,.4E-7,0
ONEWEB-0555,2023-043M,2026-06-06T11:48:01.759392,13.16596224,.00026407,87.9102,230.8949,102.3189,257.8238,0,U,56057,999,15755,.25446852E-3,.11E-5,0
ONEWEB-0557,2023-043N,2026-06-06T10:19:06.906720,13.16593888,.00030562,87.9113,230.9180,80.4896,279.6581,0,U,56058,999,15754,.19268155E-3,.87E-6,0
ONEWEB-0558,2023-043P,2026-06-06T13:03:05.171904,13.21827391,.00019713,87.9256,246.0959,109.1056,251.0291,0,U,56059,999,15683,-.6103669E-4,-.12E-6,0
ONEWEB-0559,2023-043Q,2026-06-06T12:46:07.317696,13.21826892,.00018799,87.9264,246.0936,104.7944,255.3399,0,U,56060,999,15684,.73716659E-4,.43E-6,0
ONEWEB-0566,2023-043R,2026-06-06T12:36:27.293760,13.21826789,.00017184,87.9259,246.0928,105.3391,254.7933,0,U,56061,999,15682,.19949564E-3,.95E-6,0
ONEWEB-0568,2023-043S,2026-06-06T10:44:12.092352,13.16594644,.0002271,87.9107,230.9042,99.3341,260.8047,0,U,56062,999,15756,.13129385E-3,.63E-6,0
ONEWEB-0574,2023-043T,2026-06-06T12:26:45.029472,13.21826740,.00020876,87.9279,246.0961,94.6735,265.4637,0,U,56063,999,15686,.28834211E-3,.132E-5,0
ONEWEB-0575,2023-043U,2026-06-06T10:35:04.986816,13.16594223,.0002342,87.9104,230.9016,91.7949,268.3450,0,U,56064,999,15755,-.17491571E-4,.6E-7,0
ONEWEB-0576,2023-043V,2026-06-06T11:57:08.936640,13.16593172,.00022789,87.9109,230.8976,94.5738,265.5653,0,U,56065,999,15755,.2576875E-3,.111E-5,0
ONEWEB-0577,2023-043W,2026-06-06T12:06:16.447392,13.16592962,.00025368,87.9111,230.8940,82.4560,277.6859,0,U,56066,999,15758,.17490025E-3,.8E-6,0
ONEWEB-0578,2023-043X,2026-06-06T12:07:22.362816,13.21829349,.00023549,87.9258,246.0974,100.6960,259.4439,0,U,56067,999,15682,-.40778874E-3,-.155E-5,0
ONEWEB-0579,2023-043Y,2026-06-06T11:55:17.192928,13.21826547,.00017033,87.9269,246.0958,96.8551,263.2777,0,U,56068,999,15683,.15680089E-3,.78E-6,0
ONEWEB-0581,2023-043Z,2026-06-06T10:25:56.550720,13.16596359,.00023691,87.9104,230.9190,85.5355,274.6046,0,U,56069,999,15754,.20237069E-3,.9E-6,0
ONEWEB-0609,2023-043AA,2026-06-06T14:37:33.218400,13.15548346,.00019246,87.9001,261.3194,102.5688,257.5658,0,U,56070,999,15504,-.15628079E-3,-.46E-6,0
ONEWEB-0613,2023-043AB,2026-06-06T12:44:36.292704,13.15549545,.00016233,87.8995,261.3469,102.4228,257.7084,0,U,56071,999,15503,-.23944694E-3,-.77E-6,0
ONEWEB-0630,2023-043AC,2026-06-06T12:37:44.669280,13.15550462,.00017167,87.9006,261.3189,103.3851,256.7471,0,U,56072,999,15502,.17359576E-3,.78E-6,0
ONEWEB-0632,2023-043AD,2026-06-06T12:30:55.387296,13.15548335,.00019915,87.9003,261.3383,95.4496,264.6861,0,U,56073,999,15502,.33274577E-3,.138E-5,0
ONEWEB-0633,2023-043AE,2026-06-06T12:21:46.120032,13.15548732,.00016522,87.9009,261.3141,109.7083,250.4226,0,U,56074,999,15500,.16602046E-3,.75E-6,0
ONEWEB-0634,2023-043AF,2026-06-06T13:50:47.007744,13.15548220,.00021875,87.9000,261.3431,107.6976,252.4394,0,U,56075,999,15500,.39703599E-3,.162E-5,0
ONEWEB-0635,2023-043AG,2026-06-06T13:43:55.823232,13.15550470,.00020452,87.9008,261.3056,93.3677,266.7688,0,U,56076,999,15503,.42085647E-3,.171E-5,0
ONEWEB-0636,2023-043AH,2026-06-06T13:32:32.045856,13.15549043,.00020386,87.9001,261.3140,94.7571,265.3792,0,U,56077,999,15501,.26467966E-4,.23E-6,0
ONEWEB-0637,2023-043AJ,2026-06-06T13:23:24.502272,13.15548628,.00022372,87.9000,261.3324,99.3838,260.7545,0,U,56078,999,15503,-.20865897E-3,-.66E-6,0
ONEWEB-0647,2023-043AK,2026-06-06T13:16:33.870720,13.15548839,.00018575,87.8997,261.3457,96.1868,263.9474,0,U,56079,999,15502,-.14216955E-4,.7E-7,0
ONEWEB-0651,2023-043AL,2026-06-06T13:09:42.950592,13.15548586,.00021509,87.8998,261.3403,96.3305,263.8070,0,U,56080,999,15622,.41661906E-4,.29E-6,0
ONEWEB-0718,2023-043AM,2026-06-06T13:02:51.075744,13.15550609,.00021507,87.8994,261.3213,114.2307,245.9048,0,U,56081,999,15503,-.37159968E-3,-.127E-5,0
ONEWEB-0561,2023-068A,2026-06-06T14:12:04.319424,13.20778328,.0001904,87.9219,276.5554,85.2875,274.8475,0,U,56710,999,14810,-.329679E-2,-.1327E-4,0
ONEWEB-0668,2023-068B,2026-06-06T11:38:54.820608,13.16593742,.00025396,87.9102,230.8973,105.8940,254.2471,0,U,56711,999,15037,.39299521E-3,.163E-5,0
ONEWEB-0676,2023-068C,2026-06-06T11:50:17.672640,13.16596624,.00022096,87.9104,230.9017,90.9078,269.2306,0,U,56712,999,15029,.39594944E-3,.164E-5,0
ONEWEB-0677,2023-068D,2026-06-06T13:55:05.229696,13.20770348,.00023185,87.9211,276.5487,96.7886,263.3512,0,U,56713,999,14840,.28414318E-3,.129E-5,0
ONEWEB-0678,2023-068E,2026-06-06T14:06:45.016992,13.15548188,.00017149,87.9006,261.3040,97.4367,262.6959,0,U,56714,999,14789,.54939899E-3,.22E-5,0
ONEWEB-0679,2023-068F,2026-06-06T10:51:02.089728,13.16594436,.00026415,87.9105,230.9014,96.9578,263.1854,0,U,56715,999,15031,.69040412E-4,.39E-6,0
ONEWEB-0680,2023-068G,2026-06-06T11:57:41.720256,13.21827551,.00025663,87.9269,246.0966,104.5878,255.5541,0,U,56716,999,14968,.2657041E-3,.123E-5,0
ONEWEB-0681,2023-068H,2026-06-06T11:29:50.004672,13.21826935,.0002422,87.9259,246.1021,76.8358,283.3046,0,U,56717,999,14967,.11421283E-3,.6E-6,0
ONEWEB-0682,2023-068J,2026-06-06T12:51:27.883296,13.15548077,.00024794,87.9015,261.3153,104.8508,255.2898,0,U,56718,999,14805,-.12531719E-3,-.34E-6,0
ONEWEB-0683,2023-068K,2026-06-06T13:25:41.530944,13.15548492,.00021695,87.9008,261.3100,106.1264,254.0105,0,U,56719,999,14802,-.64029217E-4,-.11E-6,0
ONEWEB-0684,2023-068L,2026-06-06T13:37:05.356704,13.15548299,.00008429,87.9007,261.2987,135.7961,224.3237,0,U,56720,999,14785,.1927066E-3,.85E-6,0
ONEWEB-0686,2023-068M,2026-06-06T11:43:28.750944,13.16594575,.00020904,87.9094,230.9184,108.6524,251.4834,0,U,56721,999,15030,.45931545E-3,.188E-5,0
ONEWEB-0694,2023-068N,2026-06-06T11:52:35.784768,13.16594671,.00024147,87.9114,230.8795,104.1061,256.0338,0,U,56722,999,15036,.14166265E-3,.67E-6,0
ONEWEB-0696,2023-068P,2026-06-06T12:35:29.796288,13.15550509,.00014759,87.9003,261.3462,98.7249,261.4048,0,U,56723,999,14796,.17790878E-3,.8E-6,0
ONEWEB-0703,2023-068Q,2026-06-06T12:49:10.625664,13.15548452,.00014115,87.9003,261.3253,75.7548,284.3739,0,U,56724,999,14785,-.29626981E-4,.2E-7,0
ONEWEB-0721,2023-068R,2026-06-06T13:08:33.303552,13.22468686,.00019455,86.6766,88.9117,78.9005,281.2346,0,U,56725,999,15653,.21296324E-3,.103E-5,0
ONEWEB-0015,2024-188A,2026-06-06T07:44:43.840032,13.11415335,.00022934,87.8895,23.2557,79.6984,280.4403,0,U,61594,999,8303,.62992481E-3,.236E-5,0
ONEWEB-0687,2024-188B,2026-06-06T12:34:13.848096,13.17652018,.00023476,87.9141,7.9979,90.5699,269.5701,0,U,61595,999,8449,-.1564575E-4,.7E-7,0
ONEWEB-0688,2024-188C,2026-06-06T07:47:30.249888,13.17647036,.00029484,87.9135,8.0380,74.8730,285.2728,0,U,61596,999,8446,-.11335784E-3,-.31E-6,0
ONEWEB-0689,2024-188D,2026-06-06T08:33:33.020352,13.11419002,.00019115,87.8911,23.2060,93.8250,266.3097,0,U,61597,999,8303,-.10506381E-2,-.36E-5,0
ONEWEB-0690,2024-188E,2026-06-06T08:48:12.490272,13.11420123,.00015435,87.8911,23.2161,63.6416,296.4871,0,U,61598,999,8321,.81201797E-4,.41E-6,0
ONEWEB-0691,2024-188F,2026-06-06T03:11:17.141856,13.11418710,.00022441,87.8916,23.1703,82.2078,277.9304,0,U,61599,999,8303,-.32479047E-3,-.102E-5,0
ONEWEB-0692,2024-188G,2026-06-06T09:10:11.499456,13.11417862,.00018574,87.8906,23.2341,111.8972,248.2354,0,U,61600,999,8305,.92574808E-3,.341E-5,0
ONEWEB-0693,2024-188H,2026-06-06T08:04:29.969472,13.17649651,.00013896,87.9129,8.0549,66.5698,293.5579,0,U,61601,999,8445,.61298914E-4,.37E-6,0
ONEWEB-0695,2024-188J,2026-06-06T08:35:59.356032,13.11417699,.00017275,87.8892,23.2330,102.0466,258.0856,0,U,61602,999,8304,-.99881297E-3,-.341E-5,0
ONEWEB-0697,2024-188K,2026-06-06T13:02:07.995840,13.11415671,.00012583,87.8900,23.1856,110.2745,249.8518,0,U,61603,999,8305,.10245873E-2,.376E-5,0
ONEWEB-0698,2024-188L,2026-06-06T12:30:22.461984,13.11419575,.00005094,87.8900,23.2038,86.4727,273.6459,0,U,61604,999,8307,.22248304E-3,.92E-6,0
ONEWEB-0699,2024-188M,2026-06-06T08:56:45.041856,13.10369363,.00012731,87.8832,38.4202,101.9048,258.2223,0,U,61605,999,8189,-.37362525E-3,-.118E-5,0
ONEWEB-0700,2024-188N,2026-06-06T08:59:08.241216,13.10369531,.00016301,87.8850,38.3278,109.8159,250.3144,0,U,61606,999,8188,-.74538017E-3,-.248E-5,0
ONEWEB-0701,2024-188P,2026-06-06T11:12:58.874112,13.10372479,.00011391,87.8840,38.4006,107.7927,252.3325,0,U,61607,999,8190,-.18320608E-2,-.627E-5,0
ONEWEB-0702,2024-188Q,2026-06-06T08:06:42.246144,13.11416508,.000155,87.8920,23.1436,116.6090,243.5197,0,U,61608,999,8306,-.11492727E-2,-.395E-5,0
ONEWEB-0704,2024-188R,2026-06-06T09:06:18.400032,13.10370464,.00017639,87.8853,38.4061,118.6588,241.4717,0,U,61609,999,8187,-.13171568E-2,-.447E-5,0
ONEWEB-0705,2024-188S,2026-06-06T09:13:29.078976,13.10359850,.00023219,87.8849,38.4112,107.9966,252.1414,0,U,61610,999,7404,-.53036719E-2,-.1838E-4,0
ONEWEB-0706,2024-188T,2026-06-06T08:51:58.491936,13.10369859,.00017645,87.8841,38.4195,101.6704,258.4621,0,U,61611,999,8196,.22825304E-3,.92E-6,0
ONEWEB-0707,2024-188U,2026-06-06T03:31:39.624096,13.10369843,.00016943,87.8855,38.4564,98.6363,261.4956,0,U,61612,999,8187,-.82907922E-3,-.277E-5,0
